{
  "norad_id": 60911,
  "name": "STARLINK-11190 [DTC]",
  "history": [
    {
      "epoch": "2026-03-28T20:26:22.217856Z",
      "apogee_km": 360.3587966771538,
      "perigee_km": 359.04640028016183,
      "latitude_deg": 4.5524365790940675e-05,
      "longitude_deg": -96.03309703271339,
      "height_km": 360.6324144577213,
      "semi_major_axis_km": 6737.8395984786575,
      "eccentricity": 9.739e-05,
      "inclination_deg": 53.1591,
      "raan_deg": 36.8256,
      "arg_perigee_deg": 91.4051,
      "mean_anomaly_deg": 268.7079,
      "mean_motion_rev_day": 15.6971844
    },
    {
      "epoch": "2026-03-29T02:33:06.688224Z",
      "apogee_km": 360.3535989528582,
      "perigee_km": 359.07744968475254,
      "latitude_deg": 9.89723282339768e-06,
      "longitude_deg": 170.77225780824995,
      "height_km": 360.46957414224664,
      "semi_major_axis_km": 6737.852524318805,
      "eccentricity": 9.47e-05,
      "inclination_deg": 53.1587,
      "raan_deg": 35.5673,
      "arg_perigee_deg": 75.5044,
      "mean_anomaly_deg": 284.6079,
      "mean_motion_rev_day": 15.69713923
    },
    {
      "epoch": "2026-03-30T01:28:24.559104Z",
      "apogee_km": 360.34929396390726,
      "perigee_km": 359.30679601214706,
      "latitude_deg": -3.639588642548749e-05,
      "longitude_deg": -178.6984960825468,
      "height_km": 360.7268400656989,
      "semi_major_axis_km": 6737.965044988027,
      "eccentricity": 7.736e-05,
      "inclination_deg": 53.1592,
      "raan_deg": 30.8624,
      "arg_perigee_deg": 88.329,
      "mean_anomaly_deg": 271.7816,
      "mean_motion_rev_day": 15.69674603
    },
    {
      "epoch": "2026-03-31T18:43:50.849760Z",
      "apogee_km": 360.595941994633,
      "perigee_km": 358.95728140426763,
      "latitude_deg": -2.1698021287940436e-05,
      "longitude_deg": -87.72650457673682,
      "height_km": 360.5238426734907,
      "semi_major_axis_km": 6737.9136116994505,
      "eccentricity": 0.0001216,
      "inclination_deg": 53.1608,
      "raan_deg": 22.3883,
      "arg_perigee_deg": 78.2827,
      "mean_anomaly_deg": 281.8327,
      "mean_motion_rev_day": 15.69692576
    },
    {
      "epoch": "2026-04-01T02:22:16.374432Z",
      "apogee_km": 360.5361350491503,
      "perigee_km": 359.06133567539473,
      "latitude_deg": 9.997497417224475e-06,
      "longitude_deg": 155.78608562128568,
      "height_km": 360.4483887037591,
      "semi_major_axis_km": 6737.935735362273,
      "eccentricity": 0.00010944,
      "inclination_deg": 53.1594,
      "raan_deg": 20.821,
      "arg_perigee_deg": 69.0185,
      "mean_anomaly_deg": 291.095,
      "mean_motion_rev_day": 15.69684845
    },
    {
      "epoch": "2026-04-02T11:59:17.881728Z",
      "apogee_km": 360.4505315175966,
      "perigee_km": 358.97197809656154,
      "latitude_deg": -6.3235740095058e-05,
      "longitude_deg": 3.2431474857051037,
      "height_km": 360.50081354676706,
      "semi_major_axis_km": 6737.848254807079,
      "eccentricity": 0.00010972,
      "inclination_deg": 53.16,
      "raan_deg": 13.915,
      "arg_perigee_deg": 80.3332,
      "mean_anomaly_deg": 279.7809,
      "mean_motion_rev_day": 15.69715415
    },
    {
      "epoch": "2026-04-02T22:41:03.790464Z",
      "apogee_km": 360.32018189349765,
      "perigee_km": 359.04619485227977,
      "latitude_deg": 2.2855503206570475e-05,
      "longitude_deg": -159.83494710016998,
      "height_km": 360.5371137640211,
      "semi_major_axis_km": 6737.820188372888,
      "eccentricity": 9.454e-05,
      "inclination_deg": 53.16,
      "raan_deg": 11.7174,
      "arg_perigee_deg": 84.5998,
      "mean_anomaly_deg": 275.5128,
      "mean_motion_rev_day": 15.69725223
    },
    {
      "epoch": "2026-04-03T04:47:48.667776Z",
      "apogee_km": 360.4605357289456,
      "perigee_km": 358.96594578854,
      "latitude_deg": -2.358094331829383e-05,
      "longitude_deg": 106.9717994733749,
      "height_km": 360.12790841156084,
      "semi_major_axis_km": 6737.850240758742,
      "eccentricity": 0.00011091,
      "inclination_deg": 53.1598,
      "raan_deg": 10.4622,
      "arg_perigee_deg": 48.0711,
      "mean_anomaly_deg": 312.0401,
      "mean_motion_rev_day": 15.69714721
    },
    {
      "epoch": "2026-04-04T11:21:29.981088Z",
      "apogee_km": 360.3882571058966,
      "perigee_km": 359.09121583412616,
      "latitude_deg": 6.812974631622549e-05,
      "longitude_deg": 1.0151132691148759,
      "height_km": 360.9488457464805,
      "semi_major_axis_km": 6737.876736470012,
      "eccentricity": 9.625e-05,
      "inclination_deg": 53.1598,
      "raan_deg": 4.1827,
      "arg_perigee_deg": 117.0739,
      "mean_anomaly_deg": 243.0378,
      "mean_motion_rev_day": 15.69705462
    },
    {
      "epoch": "2026-04-05T10:16:46.851456Z",
      "apogee_km": 360.74190949538024,
      "perigee_km": 358.8162130850651,
      "latitude_deg": -2.7376136802874933e-05,
      "longitude_deg": 11.546601137098486,
      "height_km": 360.50234938665335,
      "semi_major_axis_km": 6737.916061290222,
      "eccentricity": 0.0001429,
      "inclination_deg": 53.1595,
      "raan_deg": 359.4759,
      "arg_perigee_deg": 78.6248,
      "mean_anomaly_deg": 281.493,
      "mean_motion_rev_day": 15.6969172
    },
    {
      "epoch": "2026-04-05T20:58:32.714400Z",
      "apogee_km": 360.1191970327245,
      "perigee_km": 359.30795982308155,
      "latitude_deg": 1.2497206951687513e-05,
      "longitude_deg": -151.53143766651812,
      "height_km": 360.6262574679542,
      "semi_major_axis_km": 6737.850578427902,
      "eccentricity": 6.02e-05,
      "inclination_deg": 53.1591,
      "raan_deg": 357.2782,
      "arg_perigee_deg": 89.7833,
      "mean_anomaly_deg": 270.3254,
      "mean_motion_rev_day": 15.69714603
    },
    {
      "epoch": "2026-04-06T00:01:55.179840Z",
      "apogee_km": 360.1996186036813,
      "perigee_km": 359.27774245307137,
      "latitude_deg": -2.0147900929311147e-05,
      "longitude_deg": 161.87131645050036,
      "height_km": 360.50815911242205,
      "semi_major_axis_km": 6737.8756805283765,
      "eccentricity": 6.841e-05,
      "inclination_deg": 53.1591,
      "raan_deg": 356.6501,
      "arg_perigee_deg": 71.707,
      "mean_anomaly_deg": 288.4022,
      "mean_motion_rev_day": 15.69705831
    },
    {
      "epoch": "2026-04-07T09:38:58.689024Z",
      "apogee_km": 360.3242264217024,
      "perigee_km": 359.2846968130043,
      "latitude_deg": -1.3792228869566285e-05,
      "longitude_deg": 9.321768453303823,
      "height_km": 360.74132241495965,
      "semi_major_axis_km": 6737.9414616173535,
      "eccentricity": 7.714e-05,
      "inclination_deg": 53.1596,
      "raan_deg": 349.7458,
      "arg_perigee_deg": 92.5163,
      "mean_anomaly_deg": 267.5943,
      "mean_motion_rev_day": 15.69682844
    },
    {
      "epoch": "2026-04-07T20:20:46.038048Z",
      "apogee_km": 360.2714569290538,
      "perigee_km": 359.24325425039115,
      "latitude_deg": -3.437808341564379e-05,
      "longitude_deg": -153.76252485414997,
      "height_km": 360.5210622660086,
      "semi_major_axis_km": 6737.894355589722,
      "eccentricity": 7.63e-05,
      "inclination_deg": 53.1592,
      "raan_deg": 347.5481,
      "arg_perigee_deg": 72.9944,
      "mean_anomaly_deg": 287.1157,
      "mean_motion_rev_day": 15.69699305
    },
    {
      "epoch": "2026-04-07T21:52:27.069024Z",
      "apogee_km": 360.2983262449452,
      "perigee_km": 359.22161030941425,
      "latitude_deg": 5.009788657642673e-05,
      "longitude_deg": -177.0605798706929,
      "height_km": 360.40797915942704,
      "semi_major_axis_km": 6737.896968277179,
      "eccentricity": 7.99e-05,
      "inclination_deg": 53.1588,
      "raan_deg": 347.2337,
      "arg_perigee_deg": 60.3845,
      "mean_anomaly_deg": 299.7253,
      "mean_motion_rev_day": 15.69698392
    },
    {
      "epoch": "2026-04-09T19:42:57.769344Z",
      "apogee_km": 360.50516128668096,
      "perigee_km": 359.00665390403174,
      "latitude_deg": -1.7127327327435123e-05,
      "longitude_deg": -155.98731203400652,
      "height_km": 360.8987190025985,
      "semi_major_axis_km": 6737.892907595356,
      "eccentricity": 0.0001112,
      "inclination_deg": 53.158,
      "raan_deg": 337.8176,
      "arg_perigee_deg": 107.8224,
      "mean_anomaly_deg": 252.2915,
      "mean_motion_rev_day": 15.69699811
    },
    {
      "epoch": "2026-04-09T22:46:18.303744Z",
      "apogee_km": 360.41334791428653,
      "perigee_km": 358.9741472666019,
      "latitude_deg": 5.858535611216859e-05,
      "longitude_deg": 157.42519069885407,
      "height_km": 360.79029779155104,
      "semi_major_axis_km": 6737.830747590444,
      "eccentricity": 0.0001068,
      "inclination_deg": 53.1588,
      "raan_deg": 337.1911,
      "arg_perigee_deg": 104.7277,
      "mean_anomaly_deg": 255.386,
      "mean_motion_rev_day": 15.69721533
    },
    {
      "epoch": "2026-04-11T20:36:49.953600Z",
      "apogee_km": 360.2502804687683,
      "perigee_km": 359.12236884422055,
      "latitude_deg": 3.4376478985148e-05,
      "longitude_deg": 178.49422521802086,
      "height_km": 360.63671730320686,
      "semi_major_axis_km": 6737.823324656494,
      "eccentricity": 8.37e-05,
      "inclination_deg": 53.1581,
      "raan_deg": 327.7747,
      "arg_perigee_deg": 93.7201,
      "mean_anomaly_deg": 266.3913,
      "mean_motion_rev_day": 15.69724127
    },
    {
      "epoch": "2026-04-12T22:35:27.970944Z",
      "apogee_km": 360.6303405798617,
      "perigee_km": 359.15767652263366,
      "latitude_deg": -3.7588517653062e-06,
      "longitude_deg": 142.43264370042007,
      "height_km": 360.6241550381649,
      "semi_major_axis_km": 6738.031008551247,
      "eccentricity": 0.00010928,
      "inclination_deg": 53.1573,
      "raan_deg": 322.4384,
      "arg_perigee_deg": 75.5891,
      "mean_anomaly_deg": 284.5248,
      "mean_motion_rev_day": 15.69651553
    }
  ]
}